[{"OBJECT_NAME":"STARLINK-34811","OBJECT_ID":"2025-191T","EPOCH":"2026-03-09T14:37:27.977376","MEAN_MOTION":15.05646212,"ECCENTRICITY":0.0002315,"INCLINATION":97.6016,"RA_OF_ASC_NODE":301.3914,"ARG_OF_PERICENTER":84.334,"MEAN_ANOMALY":275.815,"EPHEMERIS_TYPE":0,"CLASSIFICATION_TYPE":"U","NORAD_CAT_ID":65396,"ELEMENT_SET_NO":999,"REV_AT_EPOCH":3025,"BSTAR":0.00016369,"MEAN_MOTION_DOT":2.302e-5,"MEAN_MOTION_DDOT":0},{"OBJECT_NAME":"CZ-6A DEB","OBJECT_ID":"2022-151MM","EPOCH":"2026-03-09T16:36:35.308512","MEAN_MOTION":15.08432741,"ECCENTRICITY":0.0037582,"INCLINATION":98.6255,"RA_OF_ASC_NODE":147.7512,"ARG_OF_PERICENTER":182.2642,"MEAN_ANOMALY":177.8419,"EPHEMERIS_TYPE":0,"CLASSIFICATION_TYPE":"U","NORAD_CAT_ID":54585,"ELEMENT_SET_NO":999,"REV_AT_EPOCH":10505,"BSTAR":0.0062350664,"MEAN_MOTION_DOT":0.00099853,"MEAN_MOTION_DDOT":0}]
